NORAD_CAT_ID,OBJECT_NAME,OBJECT_TYPE,EPOCH,MEAN_MOTION,ECCENTRICITY,INCLINATION,RA_OF_ASC_NODE,ARG_OF_PERICENTER,MEAN_ANOMALY,BSTAR,MEAN_MOTION_DOT,MEAN_MOTION_DDOT,TLE_LINE0,TLE_LINE1,TLE_LINE2,SEMIMAJOR_AXIS,PERIOD,APOGEE,PERIGEE,DECAYED
54075.0,STARLINK-5212,PAYLOAD,2023-09-08 23:52:07,15.08854758,0.0001112,53.216,115.9822,94.6275,265.4844,-0.00023171,-3.975e-05,0.0,0 STARLINK-5212,1 54075U 22136AA  23251.99453080 -.00003975  00000-0 -23171-3 0  9999,2 54075  53.2160 115.9822 0001112  94.6275 265.4844 15.08854758 49610,6917.835,95.437,540.47,538.931,0.0
54075.0,STARLINK-5212,PAYLOAD,2023-09-09 07:49:02,15.08852942,0.0001105,53.2162,114.4953,92.1174,267.9945,-0.00019145,-3.335e-05,0.0,0 STARLINK-5212,1 54075U 22136AA  23252.32572840 -.00003335  00000-0 -19145-3 0  9999,2 54075  53.2162 114.4953 0001105  92.1174 267.9945 15.08852942 49188,6917.841,95.437,540.47,538.941,0.0
54075.0,STARLINK-5212,PAYLOAD,2023-09-09 18:56:45,15.0883151,0.0001186,53.2167,112.4143,92.8075,267.3053,6.1764e-05,6.95e-06,0.0,0 STARLINK-5212,1 54075U 22136AA  23252.78941750  .00000695  00000-0  61764-4 0  9998,2 54075  53.2167 112.4143 0001186  92.8075 267.3053 15.08831510 49731,6917.906,95.438,540.592,538.951,0.0
54075.0,STARLINK-5212,PAYLOAD,2023-09-10 01:18:17,15.08839008,0.0001234,53.2167,111.2254,92.363,267.7504,0.00011869,1.602e-05,0.0,0 STARLINK-5212,1 54075U 22136AA  23253.05437256  .00001602  00000-0  11869-3 0  9999,2 54075  53.2167 111.2254 0001234  92.3630 267.7504 15.08839008 49776,6917.883,95.438,540.602,538.895,0.0
54075.0,STARLINK-5212,PAYLOAD,2023-09-10 18:47:32,15.08836626,0.0001239,53.2167,107.9546,89.3827,270.7307,4.8874e-05,4.9e-06,0.0,0 STARLINK-5212,1 54075U 22136AA  23253.78301886  .00000490  00000-0  48874-4 0  9999,2 54075  53.2167 107.9546 0001239  89.3827 270.7307 15.08836626 49881,6917.891,95.438,540.613,538.899,0.0
54075.0,STARLINK-5212,PAYLOAD,2023-09-11 07:30:37,15.08840512,0.0001239,53.2167,105.5759,86.2886,273.8248,7.2147e-05,8.61e-06,0.0,0 STARLINK-5212,1 54075U 22136AA  23254.31293672  .00000861  00000-0  72147-4 0  9994,2 54075  53.2167 105.5759 0001239  86.2886 273.8248 15.08840512 49485,6917.879,95.438,540.601,538.887,0.0
54075.0,STARLINK-5212,PAYLOAD,2023-09-11 23:24:28,15.0884728,0.0001183,53.2164,102.6013,88.5413,271.5715,6.9187e-05,8.14e-06,0.0,0 STARLINK-5212,1 54075U 22136AA  23254.97533180  .00000814  00000-0  69187-4 0  9995,2 54075  53.2164 102.6013 0001183  88.5413 271.5715 15.08847280 50061,6917.858,95.437,540.542,538.905,0.0
54075.0,STARLINK-5212,PAYLOAD,2023-09-12 20:04:29,15.08841457,0.0001111,53.2156,98.7361,91.1284,268.9835,6.0077e-05,6.68e-06,0.0,0 STARLINK-5212,1 54075U 22136AA  23255.83645605  .00000668  00000-0  60077-4 0  9993,2 54075  53.2156  98.7361 0001111  91.1284 268.9835 15.08841457 49713,6917.876,95.437,540.51,538.972,0.0
54075.0,STARLINK-5212,PAYLOAD,2023-09-13 18:19:52,15.08851707,0.0001196,53.2159,94.5709,91.3105,268.8024,9.8222e-05,1.276e-05,0.0,0 STARLINK-5212,1 54075U 22136AA  23256.76380537  .00001276  00000-0  98222-4 0  9995,2 54075  53.2159  94.5709 0001196  91.3105 268.8024 15.08851707 50331,6917.845,95.437,540.537,538.882,0.0
54075.0,STARLINK-5212,PAYLOAD,2023-09-13 19:55:15,15.08855313,0.0001342,53.2176,94.2744,92.9274,267.1871,9.6261e-05,1.245e-05,0.0,0 STARLINK-5212,1 54075U 22136AA  23256.83004349  .00001245  00000-0  96261-4 0  9994,2 54075  53.2176  94.2744 0001342  92.9274 267.1871 15.08855313 49868,6917.834,95.437,540.627,538.77,0.0
54075.0,STARLINK-5212,PAYLOAD,2023-09-13 23:06:01,15.08859241,0.0001376,53.2175,93.6785,93.0765,267.0384,7.8867e-05,9.68e-06,0.0,0 STARLINK-5212,1 54075U 22136AA  23256.96252054  .00000968  00000-0  78867-4 0  9999,2 54075  53.2175  93.6785 0001376  93.0765 267.0384 15.08859241 50368,6917.822,95.436,540.638,538.735,0.0
54075.0,STARLINK-5212,PAYLOAD,2023-09-14 13:24:32,15.08831556,0.0001391,53.2176,91.0043,91.5542,268.561,-5.3061e-05,-1.132e-05,0.0,0 STARLINK-5212,1 54075U 22136AA  23257.55870429 -.00001132  00000-0 -53061-4 0  9992,2 54075  53.2176  91.0043 0001391  91.5542 268.5610 15.08831556 49973,6917.906,95.438,540.733,538.809,0.0
54075.0,STARLINK-5212,PAYLOAD,2023-09-14 18:10:41,15.0883008,0.0001338,53.2176,90.1112,90.934,269.1806,-5.8595e-05,-1.22e-05,0.0,0 STARLINK-5212,1 54075U 22136AA  23257.75742645 -.00001220  00000-0 -58595-4 0  9997,2 54075  53.2176  90.1112 0001338  90.9340 269.1806 15.08830080 50483,6917.911,95.438,540.701,538.85,0.0
54075.0,STARLINK-5212,PAYLOAD,2023-09-14 19:46:04,15.08828739,0.0001317,53.2176,89.8151,82.7588,277.3553,-6.549e-05,-1.33e-05,0.0,0 STARLINK-5212,1 54075U 22136AA  23257.82366790 -.00001330  00000-0 -65490-4 0  9992,2 54075  53.2176  89.8151 0001317  82.7588 277.3553 15.08828739 50018,6917.915,95.438,540.691,538.869,0.0
54075.0,STARLINK-5212,PAYLOAD,2023-09-15 11:39:56,15.08838291,0.0001276,53.2173,86.8398,79.1135,281.0001,-5.0611e-05,-1.093e-05,0.0,0 STARLINK-5212,1 54075U 22136AA  23258.48606488 -.00001093  00000-0 -50611-4 0  9991,2 54075  53.2173  86.8398 0001276  79.1135 281.0001 15.08838291 50112,6917.886,95.438,540.633,538.868,0.0
54075.0,STARLINK-5212,PAYLOAD,2023-09-15 18:01:28,15.08845262,0.0001293,53.2174,85.652,81.1487,278.9651,1.5762e-05,-3.7e-07,0.0,0 STARLINK-5212,1 54075U 22136AA  23258.75101868 -.00000037  00000-0  15762-4 0  9997,2 54075  53.2174  85.6520 0001293  81.1487 278.9651 15.08845262 50638,6917.864,95.437,540.624,538.835,0.0
54075.0,STARLINK-5212,PAYLOAD,2023-09-16 13:06:06,15.08835427,0.0001368,53.2165,82.0838,75.7465,284.3679,0.00021449,3.127e-05,0.0,0 STARLINK-5212,1 54075U 22136AA  23259.54590517  .00003127  00000-0  21449-3 0  9998,2 54075  53.2165  82.0838 0001368  75.7465 284.3679 15.08835427 50272,6917.894,95.438,540.706,538.813,0.0
54075.0,STARLINK-5212,PAYLOAD,2023-09-16 17:52:15,15.08839694,0.0001365,53.2166,81.1918,76.1891,283.9253,0.0002559,3.787e-05,0.0,0 STARLINK-5212,1 54075U 22136AA  23259.74462401  .00003787  00000-0  25590-3 0  9993,2 54075  53.2166  81.1918 0001365  76.1891 283.9253 15.08839694 50786,6917.881,95.438,540.691,538.802,0.0
54075.0,STARLINK-5212,PAYLOAD,2023-09-17 11:21:29,15.08857293,0.0001366,53.2166,77.9214,77.7957,282.3189,-0.00021153,-3.654e-05,0.0,0 STARLINK-5212,1 54075U 22136AA  23260.47325515 -.00003654  00000-0 -21153-3 0  9995,2 54075  53.2166  77.9214 0001366  77.7957 282.3189 15.08857293 50415,6917.828,95.436,540.638,538.748,0.0
54075.0,STARLINK-5212,PAYLOAD,2023-09-17 19:18:25,15.0884676,0.0001336,53.2167,76.4342,79.1702,280.9441,0.00012213,1.657e-05,0.0,0 STARLINK-5212,1 54075U 22136AA  23260.80446011  .00001657  00000-0  12213-3 0  9993,2 54075  53.2167  76.4342 0001336  79.1702 280.9441 15.08846760 50943,6917.86,95.437,540.649,538.801,0.0
54075.0,STARLINK-5212,PAYLOAD,2023-09-18 11:12:17,15.08838397,0.000131,53.2169,73.4609,84.219,275.8951,1.4812e-05,-5.2e-07,0.0,0 STARLINK-5212,1 54075U 22136AA  23261.46686376 -.00000052  00000-0  14812-4 0  9993,2 54075  53.2169  73.4609 0001310  84.2190 275.8951 15.08838397 51046,6917.885,95.438,540.657,538.844,0.0
54075.0,STARLINK-5212,PAYLOAD,2023-09-18 17:33:50,15.08830732,0.0001372,53.2176,72.2717,89.0889,271.026,0.00016217,2.293e-05,0.0,0 STARLINK-5212,1 54075U 22136AA  23261.73183193  .00002293  00000-0  16217-3 0  9990,2 54075  53.2176  72.2717 0001372  89.0889 271.0260 15.08830732 51087,6917.909,95.438,540.723,538.825,0.0
54075.0,STARLINK-5212,PAYLOAD,2023-09-18 19:09:12,15.0884317,0.0001352,53.2177,71.9741,83.8124,276.3022,6.9028e-05,8.11e-06,0.0,0 STARLINK-5212,1 54075U 22136AA  23261.79806428  .00000811  00000-0  69028-4 0  9992,2 54075  53.2177  71.9741 0001352  83.8124 276.3022 15.08843170 50615,6917.871,95.437,540.671,538.8,0.0
54075.0,STARLINK-5212,PAYLOAD,2023-09-19 17:24:36,15.0885132,0.0001253,53.2164,67.8099,87.7585,272.355,0.00021081,3.07e-05,0.0,0 STARLINK-5212,1 54075U 22136AA  23262.72541682  .00003070  00000-0  21081-3 0  9990,2 54075  53.2164  67.8099 0001253  87.7585 272.3550 15.08851320 51232,6917.846,95.437,540.578,538.844,0.0
54075.0,STARLINK-5212,PAYLOAD,2023-09-20 10:53:51,15.08836005,0.0001503,53.2174,64.5396,87.8742,272.2422,8.182e-05,1.014e-05,0.0,0 STARLINK-5212,1 54075U 22136AA  23263.45406745  .00001014  00000-0  81820-4 0  9995,2 54075  53.2174  64.5396 0001503  87.8742 272.2422 15.08836005 51343,6917.893,95.438,540.797,538.718,0.0
54075.0,STARLINK-5212,PAYLOAD,2023-09-20 14:04:37,15.08833512,0.0001522,53.2173,63.9447,84.9426,275.1739,5.2201e-05,5.43e-06,0.0,0 STARLINK-5212,1 54075U 22136AA  23263.58655005  .00000543  00000-0  52201-4 0  9991,2 54075  53.2173  63.9447 0001522  84.9426 275.1739 15.08833512 50881,6917.9,95.438,540.818,538.712,0.0
54075.0,STARLINK-5212,PAYLOAD,2023-09-20 17:15:24,15.08830155,0.0001353,53.2158,63.3488,75.739,284.3752,-3.4232e-05,-8.33e-06,0.0,0 STARLINK-5212,1 54075U 22136AA  23263.71903075 -.00000833  00000-0 -34232-4 0  9997,2 54075  53.2158  63.3488 0001353  75.7390 284.3752 15.08830155 50903,6917.91,95.438,540.711,538.839,0.0
54075.0,STARLINK-5212,PAYLOAD,2023-09-21 10:44:39,15.08830851,0.0001325,53.2168,60.078,73.0466,287.0671,2.7293e-05,1.46e-06,0.0,0 STARLINK-5212,1 54075U 22136AA  23264.44767580  .00000146  00000-0  27293-4 0  9991,2 54075  53.2168  60.0780 0001325  73.0466 287.0671 15.08830851 51495,6917.908,95.438,540.69,538.857,0.0
54075.0,STARLINK-5212,PAYLOAD,2023-09-21 17:06:10,15.08848379,0.0001267,53.2171,58.8878,76.9637,283.1496,0.00022567,3.306e-05,0.0,0 STARLINK-5212,1 54075U 22136AA  23264.71262608  .00003306  00000-0  22567-3 0  9991,2 54075  53.2171  58.8878 0001267  76.9637 283.1496 15.08848379 51530,6917.855,95.437,540.596,538.843,0.0
54075.0,STARLINK-5212,PAYLOAD,2023-09-21 20:16:57,15.08851063,0.0001314,53.2171,58.2926,73.4423,286.6714,0.00037336,5.661e-05,0.0,0 STARLINK-5212,1 54075U 22136AA  23264.84510655  .00005661  00000-0  37336-3 0  9999,2 54075  53.2171  58.2926 0001314  73.4423 286.6714 15.08851063 51070,6917.847,95.437,540.621,538.803,0.0
